[{"OBJECT_NAME":"SSOT","OBJECT_ID":"2011-076E","EPOCH":"2026-03-09T22:23:33.856800","MEAN_MOTION":14.82272424,"ECCENTRICITY":0.00016181,"INCLINATION":97.8182,"RA_OF_ASC_NODE":131.6593,"ARG_OF_PERICENTER":92.448,"MEAN_ANOMALY":13.5994,"EPHEMERIS_TYPE":0,"CLASSIFICATION_TYPE":"U","NORAD_CAT_ID":38011,"ELEMENT_SET_NO":999,"REV_AT_EPOCH":76967,"BSTAR":0.00020589736,"MEAN_MOTION_DOT":1.593e-5,"MEAN_MOTION_DDOT":0},{"OBJECT_NAME":"GEESAT-1 04","OBJECT_ID":"2022-058D","EPOCH":"2026-03-09T22:25:22.027008","MEAN_MOTION":14.810114,"ECCENTRICITY":0.00100038,"INCLINATION":50.0041,"RA_OF_ASC_NODE":301.1948,"ARG_OF_PERICENTER":127.9517,"MEAN_ANOMALY":232.2326,"EPHEMERIS_TYPE":0,"CLASSIFICATION_TYPE":"U","NORAD_CAT_ID":52788,"ELEMENT_SET_NO":999,"REV_AT_EPOCH":20521,"BSTAR":0.00036323444,"MEAN_MOTION_DOT":2.624e-5,"MEAN_MOTION_DDOT":0}]
